NORAD_CAT_ID,OBJECT_NAME,OBJECT_TYPE,EPOCH,MEAN_MOTION,ECCENTRICITY,INCLINATION,RA_OF_ASC_NODE,ARG_OF_PERICENTER,MEAN_ANOMALY,BSTAR,MEAN_MOTION_DOT,MEAN_MOTION_DDOT,TLE_LINE0,TLE_LINE1,TLE_LINE2,SEMIMAJOR_AXIS,PERIOD,APOGEE,PERIGEE,DECAYED
52649.0,STARLINK-3868,PAYLOAD,2023-05-08 13:36:48,15.0884105,4.32e-05,53.215,230.3085,79.7554,280.3487,0.00018315,2.629e-05,0.0,0 STARLINK-3868,1 52649U 22052BD  23128.56722767  .00002629  00000-0  18315-3 0  9995,2 52649  53.2150 230.3085 0000432  79.7554 280.3487 15.08841050 54723,6917.877,95.437,540.041,539.443,0.0
52649.0,STARLINK-3868,PAYLOAD,2023-05-09 13:27:35,15.08853929,4.22e-05,53.2155,225.8482,64.1966,295.907,0.00035974,5.444e-05,0.0,0 STARLINK-3868,1 52649U 22052BD  23129.56082336  .00005444  00000-0  35974-3 0  9995,2 52649  53.2155 225.8482 0000422  64.1966 295.9070 15.08853929 54876,6917.838,95.437,539.995,539.411,0.0
52649.0,STARLINK-3868,PAYLOAD,2023-05-10 11:42:59,15.08841994,7.71e-05,53.2161,221.6837,132.1064,227.9993,9.115e-05,1.163e-05,0.0,0 STARLINK-3868,1 52649U 22052BD  23130.48818709  .00001163  00000-0  91150-4 0  9992,2 52649  53.2161 221.6837 0000771 132.1064 227.9993 15.08841994 55018,6917.874,95.437,540.273,539.206,0.0
52649.0,STARLINK-3868,PAYLOAD,2023-05-10 13:18:22,15.08844265,4.82e-05,53.2154,221.3881,110.4838,249.6206,0.00017637,2.521e-05,0.0,0 STARLINK-3868,1 52649U 22052BD  23130.55442761  .00002521  00000-0  17637-3 0  9997,2 52649  53.2154 221.3881 0000482 110.4838 249.6206 15.08844265 55396,6917.867,95.437,540.066,539.399,0.0
52649.0,STARLINK-3868,PAYLOAD,2023-05-11 09:58:23,15.08843089,6.31e-05,53.2164,217.5234,106.5293,253.5768,0.00017456,2.492e-05,0.0,0 STARLINK-3868,1 52649U 22052BD  23131.41554861  .00002492  00000-0  17456-3 0  9994,2 52649  53.2164 217.5234 0000631 106.5293 253.5768 15.08843089 55157,6917.871,95.437,540.172,539.299,0.0
52649.0,STARLINK-3868,PAYLOAD,2023-05-11 13:09:09,15.08847139,6.07e-05,53.2159,216.9287,99.0971,261.009,0.00027546,4.1e-05,0.0,0 STARLINK-3868,1 52649U 22052BD  23131.54802744  .00004100  00000-0  27546-3 0  9993,2 52649  53.2159 216.9287 0000607  99.0971 261.0090 15.08847139 55178,6917.859,95.437,540.143,539.304,0.0
52649.0,STARLINK-3868,PAYLOAD,2023-05-13 00:07:39,15.08839982,7.24e-05,53.2151,210.3879,69.5237,290.5833,0.00020993,3.055e-05,0.0,0 STARLINK-3868,1 52649U 22052BD  23133.00531522  .00003055  00000-0  20993-3 0  9996,2 52649  53.2151 210.3879 0000724  69.5237 290.5833 15.08839982 55766,6917.88,95.438,540.246,539.245,0.0
52649.0,STARLINK-3868,PAYLOAD,2023-05-13 11:15:21,15.08835854,4.6e-05,53.2152,208.3021,107.8544,252.2498,-5.0514e-05,-1.091e-05,0.0,0 STARLINK-3868,1 52649U 22052BD  23133.46899757 -.00001091  00000-0 -50514-4 0  9996,2 52649  53.2152 208.3021 0000460 107.8544 252.2498 15.08835854 55460,6917.893,95.438,540.076,539.44,0.0
52649.0,STARLINK-3868,PAYLOAD,2023-05-14 11:06:08,15.08846805,7.11e-05,53.2154,203.8438,62.9449,297.1616,0.00024813,3.664e-05,0.0,0 STARLINK-3868,1 52649U 22052BD  23134.46259567  .00003664  00000-0  24813-3 0  9994,2 52649  53.2154 203.8438 0000711  62.9449 297.1616 15.08846805 55983,6917.86,95.437,540.216,539.233,0.0
52649.0,STARLINK-3868,PAYLOAD,2023-05-14 12:41:31,15.08847915,6.65e-05,53.2154,203.5458,69.7704,290.3359,0.00025803,3.822e-05,0.0,0 STARLINK-3868,1 52649U 22052BD  23134.52883449  .00003822  00000-0  25803-3 0  9999,2 52649  53.2154 203.5458 0000665  69.7704 290.3359 15.08847915 55622,6917.856,95.437,540.181,539.261,0.0
52649.0,STARLINK-3868,PAYLOAD,2023-05-15 10:56:55,15.08841387,5.01e-05,53.2147,199.381,71.0223,289.0823,0.00017079,2.432e-05,0.0,0 STARLINK-3868,1 52649U 22052BD  23135.45619777  .00002432  00000-0  17079-3 0  9995,2 52649  53.2147 199.3810 0000501  71.0223 289.0823 15.08841387 56134,6917.876,95.437,540.088,539.395,0.0
52649.0,STARLINK-3868,PAYLOAD,2023-05-16 10:47:42,15.08838489,6.22e-05,53.216,194.9222,78.2432,281.863,-1.806e-06,-3.16e-06,0.0,0 STARLINK-3868,1 52649U 22052BD  23136.44980023 -.00000316  00000-0 -18060-5 0  9994,2 52649  53.2160 194.9222 0000622  78.2432 281.8630 15.08838489 56283,6917.885,95.438,540.18,539.32,0.0
52649.0,STARLINK-3868,PAYLOAD,2023-05-16 20:20:01,15.08841677,6.31e-05,53.2161,193.1385,75.0894,285.0168,1.7867e-05,-3e-08,0.0,0 STARLINK-3868,1 52649U 22052BD  23136.84723702 -.00000003  00000-0  17867-4 0  9992,2 52649  53.2161 193.1385 0000631  75.0894 285.0168 15.08841677 55972,6917.875,95.437,540.177,539.304,0.0
52649.0,STARLINK-3868,PAYLOAD,2023-05-17 20:10:48,15.08838173,6.32e-05,53.2161,188.6785,65.3975,294.7083,5.1449e-05,5.31e-06,0.0,0 STARLINK-3868,1 52649U 22052BD  23137.84083865  .00000531  00000-0  51449-4 0  9991,2 52649  53.2161 188.6785 0000632  65.3975 294.7083 15.08838173 56126,6917.886,95.438,540.188,539.314,0.0
52649.0,STARLINK-3868,PAYLOAD,2023-05-17 23:21:34,15.08834774,5.95e-05,53.2162,188.0839,80.7165,279.3895,7.1215e-05,8.46e-06,0.0,0 STARLINK-3868,1 52649U 22052BD  23137.97332004  .00000846  00000-0  71215-4 0  9999,2 52649  53.2162 188.0839 0000595  80.7165 279.3895 15.08834774 56517,6917.896,95.438,540.173,539.35,0.0
52649.0,STARLINK-3868,PAYLOAD,2023-05-18 12:04:40,15.08836828,6.06e-05,53.2162,185.7047,74.7518,285.3541,4.0467e-05,3.56e-06,0.0,0 STARLINK-3868,1 52649U 22052BD  23138.50324123  .00000356  00000-0  40467-4 0  9993,2 52649  53.2162 185.7047 0000606  74.7518 285.3541 15.08836828 56225,6917.89,95.438,540.174,539.336,0.0
52649.0,STARLINK-3868,PAYLOAD,2023-05-18 20:01:35,15.08837322,6.12e-05,53.2161,184.2177,75.9786,284.1274,3.6989e-05,3.01e-06,0.0,0 STARLINK-3868,1 52649U 22052BD  23138.83444143  .00000301  00000-0  36989-4 0  9998,2 52649  53.2161 184.2177 0000612  75.9786 284.1274 15.08837322 56274,6917.889,95.438,540.177,539.33,0.0
52649.0,STARLINK-3868,PAYLOAD,2023-05-19 08:44:40,15.08841732,6.25e-05,53.2161,181.8386,75.6499,284.4563,5.3133e-05,5.58e-06,0.0,0 STARLINK-3868,1 52649U 22052BD  23139.36435827  .00000558  00000-0  53133-4 0  9990,2 52649  53.2161 181.8386 0000625  75.6499 284.4563 15.08841732 56725,6917.875,95.437,540.172,539.308,0.0
52649.0,STARLINK-3868,PAYLOAD,2023-05-19 19:52:22,15.08840725,6.27e-05,53.2161,179.7571,71.4803,288.6257,5.2359e-05,5.46e-06,0.0,0 STARLINK-3868,1 52649U 22052BD  23139.82803855  .00000546  00000-0  52359-4 0  9997,2 52649  53.2161 179.7571 0000627  71.4803 288.6257 15.08840725 56426,6917.878,95.438,540.177,539.309,0.0
52649.0,STARLINK-3868,PAYLOAD,2023-05-20 10:10:50,15.08843411,6.6e-05,53.216,177.0804,71.2661,288.8403,0.00011157,1.489e-05,0.0,0 STARLINK-3868,1 52649U 22052BD  23140.42419588  .00001489  00000-0  11157-3 0  9998,2 52649  53.2160 177.0804 0000660  71.2661 288.8403 15.08843411 56882,6917.87,95.437,540.192,539.278,0.0
52649.0,STARLINK-3868,PAYLOAD,2023-05-20 19:43:09,15.08846871,6.7e-05,53.2162,175.2964,69.8621,290.2443,0.0001099,1.462e-05,0.0,0 STARLINK-3868,1 52649U 22052BD  23140.82163279  .00001462  00000-0  10990-3 0  9990,2 52649  53.2162 175.2964 0000670  69.8621 290.2443 15.08846871 56571,6917.859,95.437,540.188,539.261,0.0
52649.0,STARLINK-3868,PAYLOAD,2023-05-21 11:37:00,15.08849611,7.38e-05,53.216,172.3228,70.8001,289.3071,0.00010234,1.342e-05,0.0,0 STARLINK-3868,1 52649U 22052BD  23141.48402932  .00001342  00000-0  10234-3 0  9993,2 52649  53.2160 172.3228 0000738  70.8001 289.3071 15.08849611 56671,6917.851,95.437,540.227,539.205,0.0
52649.0,STARLINK-3868,PAYLOAD,2023-05-21 19:33:56,15.08837785,0.0001339,53.2163,170.8364,77.6241,282.4901,3.3675e-06,-2.34e-06,0.0,0 STARLINK-3868,1 52649U 22052BD  23141.81524073 -.00000234  00000-0  33675-5 0  9997,2 52649  53.2163 170.8364 0001339  77.6241 282.4901 15.08837785 56728,6917.887,95.438,540.678,538.826,0.0
52649.0,STARLINK-3868,PAYLOAD,2023-05-22 01:55:29,15.08835515,7.07e-05,53.2159,169.6469,79.066,281.0412,-1.4226e-05,-5.14e-06,0.0,0 STARLINK-3868,1 52649U 22052BD  23142.08020107 -.00000514  00000-0 -14226-4 0  9998,2 52649  53.2159 169.6469 0000707  79.0660 281.0412 15.08835515 57131,6917.894,95.438,540.248,539.27,0.0
52649.0,STARLINK-3868,PAYLOAD,2023-05-22 08:17:02,15.0883513,7.34e-05,53.2159,168.4575,77.0171,283.0903,-1.5978e-05,-5.42e-06,0.0,0 STARLINK-3868,1 52649U 22052BD  23142.34516241 -.00000542  00000-0 -15978-4 0  9992,2 52649  53.2159 168.4575 0000734  77.0171 283.0903 15.08835130 56804,6917.895,95.438,540.268,539.253,0.0
52649.0,STARLINK-3868,PAYLOAD,2023-05-23 08:07:48,15.08839332,6.95e-05,53.2153,163.9951,93.2339,266.8733,5.8985e-06,-1.94e-06,0.0,0 STARLINK-3868,1 52649U 22052BD  23143.33876003 -.00000194  00000-0  58985-5 0  9995,2 52649  53.2153 163.9951 0000695  93.2339 266.8733 15.08839332 57324,6917.882,95.438,540.228,539.267,0.0
52649.0,STARLINK-3868,PAYLOAD,2023-05-24 07:58:36,15.08835142,6.25e-05,53.2159,159.5358,82.0129,278.0934,0.00013986,1.939e-05,0.0,0 STARLINK-3868,1 52649U 22052BD  23144.33236249  .00001939  00000-0  13986-3 0  9995,2 52649  53.2159 159.5358 0000625  82.0129 278.0934 15.08835142 57107,6917.895,95.438,540.193,539.328,0.0
52649.0,STARLINK-3868,PAYLOAD,2023-05-26 04:29:24,15.08837128,7e-05,53.2161,151.2092,84.5902,275.517,4.2252e-05,3.85e-06,0.0,0 STARLINK-3868,1 52649U 22052BD  23146.18708768  .00000385  00000-0  42252-4 0  9993,2 52649  53.2161 151.2092 0000700  84.5902 275.5170 15.08837128 57755,6917.889,95.438,540.238,539.27,0.0
52649.0,STARLINK-3868,PAYLOAD,2023-05-26 07:40:10,15.08837855,6.86e-05,53.2156,150.6119,73.1281,286.9787,4.2935e-05,3.96e-06,0.0,0 STARLINK-3868,1 52649U 22052BD  23146.31956719  .00000396  00000-0  42935-4 0  9999,2 52649  53.2156 150.6119 0000686  73.1281 286.9787 15.08837855 57408,6917.887,95.438,540.227,539.277,0.0
52649.0,STARLINK-3868,PAYLOAD,2023-05-27 07:30:57,15.08838686,6.68e-05,53.2158,146.1541,74.3346,285.772,6.0028e-05,6.68e-06,0.0,0 STARLINK-3868,1 52649U 22052BD  23147.31316741  .00000668  00000-0  60028-4 0  9990,2 52649  53.2158 146.1541 0000668  74.3346 285.7720 15.08838686 57928,6917.884,95.438,540.212,539.287,0.0
